CALSPHERE 1             
1 00900U 64063C   13240.83952351  .00000126  00000-0  12940-3 0   858
2 00900  90.1461 350.8776 0025164 322.6355  37.3057 13.71590194429585
CALSPHERE 2             
1 00902U 64063E   13238.89743494  .00000026  00000-0  24669-4 0  8634
2 00902  90.1492 353.2846 0020134 122.2192  26.4394 13.52550561224401
LCS 1                   
1 01361U 65034C   13237.14989978  .00000008  00000-0  00000+0 0  4723
2 01361  32.1397 126.5507 0009392 134.3011  39.0591  9.89284805746861
TEMPSAT 1               
1 01512U 65065E   13240.14852657  .00000048  00000-0  75688-4 0  9247
2 01512  89.7828 269.3069 0071303  58.7522   8.2804 13.33324212336896
CALSPHERE 4(A)          
1 01520U 65065H   13240.19207441  .00000075  00000-0  12987-3 0  1026
2 01520  90.1333 107.8479 0068593 328.7562 152.9411 13.35514633338842
OPS 5712 (P/L 160)      
1 02826U 67053A   13240.49109017  .00001280  00000-0  40699-3 0  9767
2 02826  69.9309 234.5773 0005825 215.4453 144.6290 14.42106816387974
OPS 5712 (P/L 153)      
1 02874U 67053H   13240.50939172 -.00000015  00000-0  27696-4 0  4972
2 02874  69.9744  49.9493 0005785 161.7206 259.0820 13.96090635354536
SURCAL 150B             
1 02909U 67053J   13241.16072840  .00002584  00000-0  65888-3 0  1854
2 02909  69.9552   1.6032 0005833 301.8129  58.2437 14.51654381395074
RIGIDSPHERE 2 (LCS 4)   
1 05398U 71067E   13240.51322005  .00000305  00000-0  10389-3 0  8636
2 05398  87.6301 188.5898 0065347 176.6089 303.6893 14.32199506203929
